STARLINK-31166          
1 58789U 24012C   24036.25001157 -.01717065  00000+0 -27599-1 0  9993
2 58789  42.9996 149.9952 0001362 271.9819 193.5955 15.55300734  4415
STARLINK-31187          
1 58790U 24012D   24036.25001157 -.01713602  00000+0 -27541-1 0  9995
2 58790  42.9997 149.9933 0001386 272.6430 193.7883 15.55296390  4560
STARLINK-31162          
1 58791U 24012E   24036.25001157 -.01714793  00000+0 -31206-1 0  9991
2 58791  42.9996 149.9962 0001382 268.0656 196.1307 15.51919870  4577
STARLINK-31194          
1 58792U 24012F   24035.91667824 -.01743140  00000+0 -23071-1 0  9992
2 58792  43.0000 151.2839 0001821 269.2110  37.8740 15.60453390  4528
STARLINK-31184          
1 58793U 24012G   24036.25001157 -.01709884  00000+0 -27484-1 0  9991
2 58793  42.9998 149.9862 0001138 279.3061 189.6832 15.55289047  4473
STARLINK-31192          
1 58794U 24012H   24036.25001157 -.01718649  00000+0 -27634-1 0  9998
2 58794  42.9995 149.9851 0001402 268.4450 201.3935 15.55294028  4419
STARLINK-31161          
1 58795U 24012J   24035.91667824 -.01744531  00000+0 -26794-1 0  9995
2 58795  42.9994 151.9484 0001845 277.7450 123.5937 15.56561258  4519
STARLINK-31195          
1 58796U 24012K   24035.91667824 -.01748090  00000+0 -26858-1 0  9991
2 58796  42.9997 151.9462 0001565 274.3367 127.8563 15.56561258  4510
STARLINK-31193          
1 58797U 24012L   24036.25001157 -.01715152  00000+0 -27578-1 0  9994
2 58797  42.9997 149.9781 0001481 271.3323 201.0649 15.55286604  4561
STARLINK-31168          
1 58798U 24012M   24035.91667824 -.01745351  00000+0 -26815-1 0  9993
2 58798  42.9996 151.9414 0001658 279.4164 124.4861 15.56556256  4518
STARLINK-31154          
1 58799U 24012N   24035.91667824 -.01743082  00000+0 -26796-1 0  9991
2 58799  42.9996 151.9169 0001628 282.4750 130.8254 15.56536656  4416
STARLINK-31191          
1 58800U 24012P   24035.91667824 -.01747670  00000+0 -26856-1 0  9998
2 58800  42.9996 151.9392 0001562 275.6206 129.1355 15.56556102  4369
STARLINK-31170          
1 58801U 24012Q   24035.91667824 -.01746385  00000+0 -26834-1 0  9997
2 58801  42.9996 151.9367 0001747 277.9646 127.6455 15.56554203  4511
STARLINK-31173          
1 58802U 24012R   24035.77477809  .00488243  11294-3  83585-3 0  9996
2 58802  42.9982 149.9834 0002848 291.1164  68.9410 16.01656903  4518
