[
  {
    "OBJECT_NAME": "STARLINK-31166",
    "OBJECT_ID": "2024-012C",
    "EPOCH": "2024-02-05T06:00:00.999648",
    "MEAN_MOTION": 15.55300734,
    "ECCENTRICITY": 0.0001362,
    "INCLINATION": 42.9996,
    "RA_OF_ASC_NODE": 149.9952,
    "ARG_OF_PERICENTER": 271.9819,
    "MEAN_ANOMALY": 193.5955,
    "EPHEMERIS_TYPE": 0,
    "CLASSIFICATION_TYPE": "U",
    "NORAD_CAT_ID": 58789,
    "ELEMENT_SET_NO": 999,
    "REV_AT_EPOCH": 441,
    "BSTAR": -0.027599,
    "MEAN_MOTION_DOT": -0.01717065,
    "MEAN_MOTION_DDOT": 0
  },
  {
    "OBJECT_NAME": "STARLINK-31187",
    "OBJECT_ID": "2024-012D",
    "EPOCH": "2024-02-05T06:00:00.999648",
    "MEAN_MOTION": 15.5529639,
    "ECCENTRICITY": 0.0001386,
    "INCLINATION": 42.9997,
    "RA_OF_ASC_NODE": 149.9933,
    "ARG_OF_PERICENTER": 272.643,
    "MEAN_ANOMALY": 193.7883,
    "EPHEMERIS_TYPE": 0,
    "CLASSIFICATION_TYPE": "U",
    "NORAD_CAT_ID": 58790,
    "ELEMENT_SET_NO": 999,
    "REV_AT_EPOCH": 456,
    "BSTAR": -0.027541,
    "MEAN_MOTION_DOT": -0.01713602,
    "MEAN_MOTION_DDOT": 0
  },
  {
    "OBJECT_NAME": "STARLINK-31162",
    "OBJECT_ID": "2024-012E",
    "EPOCH": "2024-02-05T06:00:00.999648",
    "MEAN_MOTION": 15.5191987,
    "ECCENTRICITY": 0.0001382,
    "INCLINATION": 42.9996,
    "RA_OF_ASC_NODE": 149.9962,
    "ARG_OF_PERICENTER": 268.0656,
    "MEAN_ANOMALY": 196.1307,
    "EPHEMERIS_TYPE": 0,
    "CLASSIFICATION_TYPE": "U",
    "NORAD_CAT_ID": 58791,
    "ELEMENT_SET_NO": 999,
    "REV_AT_EPOCH": 457,
    "BSTAR": -0.031206,
    "MEAN_MOTION_DOT": -0.01714793,
    "MEAN_MOTION_DDOT": 0
  },
  {
    "OBJECT_NAME": "STARLINK-31194",
    "OBJECT_ID": "2024-012F",
    "EPOCH": "2024-02-04T22:00:00.999936",
    "MEAN_MOTION": 15.6045339,
    "ECCENTRICITY": 0.0001821,
    "INCLINATION": 43,
    "RA_OF_ASC_NODE": 151.2839,
    "ARG_OF_PERICENTER": 269.211,
    "MEAN_ANOMALY": 37.874,
    "EPHEMERIS_TYPE": 0,
    "CLASSIFICATION_TYPE": "U",
    "NORAD_CAT_ID": 58792,
    "ELEMENT_SET_NO": 999,
    "REV_AT_EPOCH": 452,
    "BSTAR": -0.023071,
    "MEAN_MOTION_DOT": -0.0174314,
    "MEAN_MOTION_DDOT": 0
  },
  {
    "OBJECT_NAME": "STARLINK-31184",
    "OBJECT_ID": "2024-012G",
    "EPOCH": "2024-02-05T06:00:00.999648",
    "MEAN_MOTION": 15.55289047,
    "ECCENTRICITY": 0.0001138,
    "INCLINATION": 42.9998,
    "RA_OF_ASC_NODE": 149.9862,
    "ARG_OF_PERICENTER": 279.3061,
    "MEAN_ANOMALY": 189.6832,
    "EPHEMERIS_TYPE": 0,
    "CLASSIFICATION_TYPE": "U",
    "NORAD_CAT_ID": 58793,
    "ELEMENT_SET_NO": 999,
    "REV_AT_EPOCH": 447,
    "BSTAR": -0.027484,
    "MEAN_MOTION_DOT": -0.01709884,
    "MEAN_MOTION_DDOT": 0
  },
  {
    "OBJECT_NAME": "STARLINK-31192",
    "OBJECT_ID": "2024-012H",
    "EPOCH": "2024-02-05T06:00:00.999648",
    "MEAN_MOTION": 15.55294028,
    "ECCENTRICITY": 0.0001402,
    "INCLINATION": 42.9995,
    "RA_OF_ASC_NODE": 149.9851,
    "ARG_OF_PERICENTER": 268.445,
    "MEAN_ANOMALY": 201.3935,
    "EPHEMERIS_TYPE": 0,
    "CLASSIFICATION_TYPE": "U",
    "NORAD_CAT_ID": 58794,
    "ELEMENT_SET_NO": 999,
    "REV_AT_EPOCH": 441,
    "BSTAR": -0.027634,
    "MEAN_MOTION_DOT": -0.01718649,
    "MEAN_MOTION_DDOT": 0
  },
  {
    "OBJECT_NAME": "STARLINK-31161",
    "OBJECT_ID": "2024-012J",
    "EPOCH": "2024-02-04T22:00:00.999936",
    "MEAN_MOTION": 15.56561258,
    "ECCENTRICITY": 0.0001845,
    "INCLINATION": 42.9994,
    "RA_OF_ASC_NODE": 151.9484,
    "ARG_OF_PERICENTER": 277.745,
    "MEAN_ANOMALY": 123.5937,
    "EPHEMERIS_TYPE": 0,
    "CLASSIFICATION_TYPE": "U",
    "NORAD_CAT_ID": 58795,
    "ELEMENT_SET_NO": 999,
    "REV_AT_EPOCH": 451,
    "BSTAR": -0.026794,
    "MEAN_MOTION_DOT": -0.01744531,
    "MEAN_MOTION_DDOT": 0
  },
  {
    "OBJECT_NAME": "STARLINK-31195",
    "OBJECT_ID": "2024-012K",
    "EPOCH": "2024-02-04T22:00:00.999936",
    "MEAN_MOTION": 15.56561258,
    "ECCENTRICITY": 0.0001565,
    "INCLINATION": 42.9997,
    "RA_OF_ASC_NODE": 151.9462,
    "ARG_OF_PERICENTER": 274.3367,
    "MEAN_ANOMALY": 127.8563,
    "EPHEMERIS_TYPE": 0,
    "CLASSIFICATION_TYPE": "U",
    "NORAD_CAT_ID": 58796,
    "ELEMENT_SET_NO": 999,
    "REV_AT_EPOCH": 451,
    "BSTAR": -0.026858,
    "MEAN_MOTION_DOT": -0.0174809,
    "MEAN_MOTION_DDOT": 0
  },
  {
    "OBJECT_NAME": "STARLINK-31193",
    "OBJECT_ID": "2024-012L",
    "EPOCH": "2024-02-05T06:00:00.999648",
    "MEAN_MOTION": 15.55286604,
    "ECCENTRICITY": 0.0001481,
    "INCLINATION": 42.9997,
    "RA_OF_ASC_NODE": 149.9781,
    "ARG_OF_PERICENTER": 271.3323,
    "MEAN_ANOMALY": 201.0649,
    "EPHEMERIS_TYPE": 0,
    "CLASSIFICATION_TYPE": "U",
    "NORAD_CAT_ID": 58797,
    "ELEMENT_SET_NO": 999,
    "REV_AT_EPOCH": 456,
    "BSTAR": -0.027578,
    "MEAN_MOTION_DOT": -0.01715152,
    "MEAN_MOTION_DDOT": 0
  },
  {
    "OBJECT_NAME": "STARLINK-31168",
    "OBJECT_ID": "2024-012M",
    "EPOCH": "2024-02-04T22:00:00.999936",
    "MEAN_MOTION": 15.56556256,
    "ECCENTRICITY": 0.0001658,
    "INCLINATION": 42.9996,
    "RA_OF_ASC_NODE": 151.9414,
    "ARG_OF_PERICENTER": 279.4164,
    "MEAN_ANOMALY": 124.4861,
    "EPHEMERIS_TYPE": 0,
    "CLASSIFICATION_TYPE": "U",
    "NORAD_CAT_ID": 58798,
    "ELEMENT_SET_NO": 999,
    "REV_AT_EPOCH": 451,
    "BSTAR": -0.026815,
    "MEAN_MOTION_DOT": -0.01745351,
    "MEAN_MOTION_DDOT": 0
  },
  {
    "OBJECT_NAME": "STARLINK-31154",
    "OBJECT_ID": "2024-012N",
    "EPOCH": "2024-02-04T22:00:00.999936",
    "MEAN_MOTION": 15.56536656,
    "ECCENTRICITY": 0.0001628,
    "INCLINATION": 42.9996,
    "RA_OF_ASC_NODE": 151.9169,
    "ARG_OF_PERICENTER": 282.475,
    "MEAN_ANOMALY": 130.8254,
    "EPHEMERIS_TYPE": 0,
    "CLASSIFICATION_TYPE": "U",
    "NORAD_CAT_ID": 58799,
    "ELEMENT_SET_NO": 999,
    "REV_AT_EPOCH": 441,
    "BSTAR": -0.026796,
    "MEAN_MOTION_DOT": -0.01743082,
    "MEAN_MOTION_DDOT": 0
  },
  {
    "OBJECT_NAME": "STARLINK-31191",
    "OBJECT_ID": "2024-012P",
    "EPOCH": "2024-02-04T22:00:00.999936",
    "MEAN_MOTION": 15.56556102,
    "ECCENTRICITY": 0.0001562,
    "INCLINATION": 42.9996,
    "RA_OF_ASC_NODE": 151.9392,
    "ARG_OF_PERICENTER": 275.6206,
    "MEAN_ANOMALY": 129.1355,
    "EPHEMERIS_TYPE": 0,
    "CLASSIFICATION_TYPE": "U",
    "NORAD_CAT_ID": 58800,
    "ELEMENT_SET_NO": 999,
    "REV_AT_EPOCH": 436,
    "BSTAR": -0.026856,
    "MEAN_MOTION_DOT": -0.0174767,
    "MEAN_MOTION_DDOT": 0
  },
  {
    "OBJECT_NAME": "STARLINK-31170",
    "OBJECT_ID": "2024-012Q",
    "EPOCH": "2024-02-04T22:00:00.999936",
    "MEAN_MOTION": 15.56554203,
    "ECCENTRICITY": 0.0001747,
    "INCLINATION": 42.9996,
    "RA_OF_ASC_NODE": 151.9367,
    "ARG_OF_PERICENTER": 277.9646,
    "MEAN_ANOMALY": 127.6455,
    "EPHEMERIS_TYPE": 0,
    "CLASSIFICATION_TYPE": "U",
    "NORAD_CAT_ID": 58801,
    "ELEMENT_SET_NO": 999,
    "REV_AT_EPOCH": 451,
    "BSTAR": -0.026834,
    "MEAN_MOTION_DOT": -0.01746385,
    "MEAN_MOTION_DDOT": 0
  },
  {
    "OBJECT_NAME": "STARLINK-31173",
    "OBJECT_ID": "2024-012R",
    "EPOCH": "2024-02-04T18:35:40.826976",
    "MEAN_MOTION": 16.01656903,
    "ECCENTRICITY": 0.0002848,
    "INCLINATION": 42.9982,
    "RA_OF_ASC_NODE": 149.9834,
    "ARG_OF_PERICENTER": 291.1164,
    "MEAN_ANOMALY": 68.941,
    "EPHEMERIS_TYPE": 0,
    "CLASSIFICATION_TYPE": "U",
    "NORAD_CAT_ID": 58802,
    "ELEMENT_SET_NO": 999,
    "REV_AT_EPOCH": 451,
    "BSTAR": 0.00083585,
    "MEAN_MOTION_DOT": 0.00488243,
    "MEAN_MOTION_DDOT": 0.00011294
  }
]